{
    "links": {
        "self": "http://www.neowsapp.com/rest/v1/neo/3797741?api_key=iIulBulltgU6a56xZRHN4H3l9WmuAYTsLGpBGhQ2"
    },
    "id": "3797741",
    "neo_reference_id": "3797741",
    "name": "(2018 BJ1)",
    "designation": "2018 BJ1",
    "nasa_jpl_url": "http://ssd.jpl.nasa.gov/sbdb.cgi?sstr=3797741",
    "absolute_magnitude_h": 25.0,
    "estimated_diameter": {
        "kilometers": {
            "estimated_diameter_min": 0.02658,
            "estimated_diameter_max": 0.0594346868
        },
        "meters": {
            "estimated_diameter_min": 26.58,
            "estimated_diameter_max": 59.4346868419
        },
        "miles": {
            "estimated_diameter_min": 0.0165160412,
            "estimated_diameter_max": 0.0369309908
        },
        "feet": {
            "estimated_diameter_min": 87.2047272,
            "estimated_diameter_max": 194.9956979785
        }
    },
    "is_potentially_hazardous_asteroid": false,
    "close_approach_data": [
        {
            "close_approach_date": "2018-01-03",
            "close_approach_date_full": "2018-Jan-03 22:26",
            "epoch_date_close_approach": 1515018360000,
            "relative_velocity": {
                "kilometers_per_second": "16.5578214145",
                "kilometers_per_hour": "59608.157092295",
                "miles_per_hour": "37038.1907221541"
            },
            "miss_distance": {
                "astronomical": "0.0530220151",
                "lunar": "20.6255638739",
                "kilometers": "7931980.522067837",
                "miles": "4928704.1493646706"
            },
            "orbiting_body": "Earth"
        }
    ],
    "orbital_data": {
        "orbit_id": "2",
        "orbit_determination_date": "2018-01-21 06:55:47",
        "first_observation_date": "2018-01-16",
        "last_observation_date": "2018-01-20",
        "data_arc_in_days": 4,
        "observations_used": 15,
        "orbit_uncertainty": "9",
        "minimum_orbit_intersection": ".0012942",
        "jupiter_tisserand_invariant": "3.665",
        "epoch_osculation": "2458136.5",
        "eccentricity": ".6481271199493613",
        "semi_major_axis": "1.894579696910932",
        "inclination": "1.704019747579248",
        "ascending_node_longitude": "284.4379819445572",
        "orbital_period": "952.5060552549228",
        "perihelion_distance": ".6666512144375156",
        "perihelion_argument": "103.0521095020399",
        "aphelion_distance": "3.122508179384348",
        "perihelion_time": "2458077.609004532831",
        "mean_anomaly": "22.25787253657595",
        "mean_motion": ".3779503531908275",
        "equinox": "J2000",
        "orbit_class": {
            "orbit_class_type": "APO",
            "orbit_class_description": "Near-Earth asteroid orbits which cross the Earth’s orbit similar to that of 1862 Apollo",
            "orbit_class_range": "a (semi-major axis) > 1.0 AU; q (perihelion) < 1.017 AU"
        }
    },
    "is_sentry_object": false
}